[{"OBJECT_NAME":"GEESAT-1 05","OBJECT_ID":"2022-058E","EPOCH":"2026-03-09T23:16:32.924064","MEAN_MOTION":14.9973595,"ECCENTRICITY":0.00033659,"INCLINATION":49.9868,"RA_OF_ASC_NODE":292.6549,"ARG_OF_PERICENTER":123.1289,"MEAN_ANOMALY":236.998,"EPHEMERIS_TYPE":0,"CLASSIFICATION_TYPE":"U","NORAD_CAT_ID":52789,"ELEMENT_SET_NO":999,"REV_AT_EPOCH":20531,"BSTAR":0.00050752064,"MEAN_MOTION_DOT":6.088e-5,"MEAN_MOTION_DDOT":0},{"OBJECT_NAME":"STARLINK-6031","OBJECT_ID":"2023-078AV","EPOCH":"2026-03-09T23:18:26.902080","MEAN_MOTION":14.98332152,"ECCENTRICITY":0.00025154,"INCLINATION":70.0012,"RA_OF_ASC_NODE":343.6972,"ARG_OF_PERICENTER":270.1181,"MEAN_ANOMALY":89.969,"EPHEMERIS_TYPE":0,"CLASSIFICATION_TYPE":"U","NORAD_CAT_ID":56810,"ELEMENT_SET_NO":999,"REV_AT_EPOCH":15272,"BSTAR":2.14396e-6,"MEAN_MOTION_DOT":-6.7e-7,"MEAN_MOTION_DDOT":0}]
